{
  "type": "FeatureCollection",
  "features": [
    {
      "type": "Feature",
      "properties": {
        "norad_id": 30719,
        "name": "FENGYUN 1C DEB",
        "group": "fengyun-1c-debris",
        "lat": 63.07650418584982,
        "lon": 125.05294439412619,
        "alt_km": 688.4352668623851,
        "timestamp": "2025-12-26T06:43:29.789961+00:00",
        "meta_object_name": "FENGYUN 1C DEB",
        "meta_object_id": "1999-025ASD",
        "meta_epoch": "2025-12-25T15:37:25.350240",
        "meta_mean_motion": 14.59652737,
        "meta_eccentricity": 0.0010392,
        "meta_inclination": 98.887,
        "meta_ra_of_asc_node": 142.3241,
        "meta_arg_of_pericenter": 159.5649,
        "meta_mean_anomaly": 200.5967,
        "meta_ephemeris_type": 0,
        "meta_classification_type": "U",
        "meta_norad_cat_id": 30719,
        "meta_element_set_no": 999,
        "meta_rev_at_epoch": 97637,
        "meta_bstar": 0.0039033,
        "meta_mean_motion_dot": 0.00018599,
        "meta_mean_motion_ddot": 0,
        "tle_line1": "1 30719U 99025ASD 25359.65098785  .00018599  00000+0  39033-2 0  9998",
        "tle_line2": "2 30719  98.8870 142.3241 0010392 159.5649 200.5967 14.59652737976373"
      },
      "geometry": {
        "type": "Point",
        "coordinates": [
          125.05294439412619,
          63.07650418584982
        ]
      }
    },
    {
      "type": "Feature",
      "properties": {
        "norad_id": 30720,
        "name": "FENGYUN 1C DEB",
        "group": "fengyun-1c-debris",
        "lat": 42.996170445196285,
        "lon": 165.72992439862816,
        "alt_km": 800.4597986244644,
        "timestamp": "2025-12-26T06:43:29.789971+00:00",
        "meta_object_name": "FENGYUN 1C DEB",
        "meta_object_id": "1999-025ASE",
        "meta_epoch": "2025-12-25T00:51:41.809248",
        "meta_mean_motion": 14.29148234,
        "meta_eccentricity": 0.00323657,
        "meta_inclination": 99.0359,
        "meta_ra_of_asc_node": 172.9733,
        "meta_arg_of_pericenter": 293.0313,
        "meta_mean_anomaly": 192.1103,
        "meta_ephemeris_type": 0,
        "meta_classification_type": "U",
        "meta_norad_cat_id": 30720,
        "meta_element_set_no": 999,
        "meta_rev_at_epoch": 97664,
        "meta_bstar": 0.00041523035,
        "meta_mean_motion_dot": 1.012e-05,
        "meta_mean_motion_ddot": 0,
        "tle_line1": "1 30720U 99025ASE 25359.03590057  .00001012  00000+0  41523-3 0  9991",
        "tle_line2": "2 30720  99.0359 172.9733 0032365 293.0313 192.1103 14.29148234976648"
      },
      "geometry": {
        "type": "Point",
        "coordinates": [
          165.72992439862816,
          42.996170445196285
        ]
      }
    },
    {
      "type": "Feature",
      "properties": {
        "norad_id": 30721,
        "name": "FENGYUN 1C DEB",
        "group": "fengyun-1c-debris",
        "lat": -31.43898434913181,
        "lon": -52.83816323147522,
        "alt_km": 657.9549293698656,
        "timestamp": "2025-12-26T06:43:29.789981+00:00",
        "meta_object_name": "FENGYUN 1C DEB",
        "meta_object_id": "1999-025ASF",
        "meta_epoch": "2025-12-25T22:10:18.173280",
        "meta_mean_motion": 14.72392215,
        "meta_eccentricity": 0.0028528,
        "meta_inclination": 98.7096,
        "meta_ra_of_asc_node": 132.1576,
        "meta_arg_of_pericenter": 298.7932,
        "meta_mean_anomaly": 185.3258,
        "meta_ephemeris_type": 0,
        "meta_classification_type": "U",
        "meta_norad_cat_id": 30721,
        "meta_element_set_no": 999,
        "meta_rev_at_epoch": 98036,
        "meta_bstar": 0.0032551091,
        "meta_mean_motion_dot": 0.00020749,
        "meta_mean_motion_ddot": 0,
        "tle_line1": "1 30721U 99025ASF 25359.92382145  .00020749  00000+0  32551-2 0  9995",
        "tle_line2": "2 30721  98.7096 132.1576 0028528 298.7932 185.3258 14.72392215980368"
      },
      "geometry": {
        "type": "Point",
        "coordinates": [
          -52.83816323147522,
          -31.43898434913181
        ]
      }
    },
    {
      "type": "Feature",
      "properties": {
        "norad_id": 30723,
        "name": "FENGYUN 1C DEB",
        "group": "fengyun-1c-debris",
        "lat": 30.770301751651527,
        "lon": 81.45499886281745,
        "alt_km": 763.2960466357836,
        "timestamp": "2025-12-26T06:43:29.789992+00:00",
        "meta_object_name": "FENGYUN 1C DEB",
        "meta_object_id": "1999-025ASH",
        "meta_epoch": "2025-12-25T22:31:59.802240",
        "meta_mean_motion": 14.41513379,
        "meta_eccentricity": 0.00164743,
        "meta_inclination": 98.8426,
        "meta_ra_of_asc_node": 86.4202,
        "meta_arg_of_pericenter": 224.0373,
        "meta_mean_anomaly": 196.9549,
        "meta_ephemeris_type": 0,
        "meta_classification_type": "U",
        "meta_norad_cat_id": 30723,
        "meta_element_set_no": 999,
        "meta_rev_at_epoch": 97561,
        "meta_bstar": 0.0021570391,
        "meta_mean_motion_dot": 6.977e-05,
        "meta_mean_motion_ddot": 0,
        "tle_line1": "1 30723U 99025ASH 25359.93888660  .00006977  00000+0  21570-2 0  9997",
        "tle_line2": "2 30723  98.8426  86.4202 0016474 224.0373 196.9549 14.41513379975618"
      },
      "geometry": {
        "type": "Point",
        "coordinates": [
          81.45499886281745,
          30.770301751651527
        ]
      }
    },
    {
      "type": "Feature",
      "properties": {
        "norad_id": 30724,
        "name": "FENGYUN 1C DEB",
        "group": "fengyun-1c-debris",
        "lat": 80.57942133344285,
        "lon": 104.46152200390956,
        "alt_km": 804.6102298084279,
        "timestamp": "2025-12-26T06:43:29.790002+00:00",
        "meta_object_name": "FENGYUN 1C DEB",
        "meta_object_id": "1999-025ASJ",
        "meta_epoch": "2025-12-24T06:41:34.514880",
        "meta_mean_motion": 14.37077528,
        "meta_eccentricity": 0.00931299,
        "meta_inclination": 99.3156,
        "meta_ra_of_asc_node": 183.9059,
        "meta_arg_of_pericenter": 226.1302,
        "meta_mean_anomaly": 315.2443,
        "meta_ephemeris_type": 0,
        "meta_classification_type": "U",
        "meta_norad_cat_id": 30724,
        "meta_element_set_no": 999,
        "meta_rev_at_epoch": 98618,
        "meta_bstar": 0.00042213285,
        "meta_mean_motion_dot": 1.264e-05,
        "meta_mean_motion_ddot": 0,
        "tle_line1": "1 30724U 99025ASJ 25358.27887170  .00001264  00000+0  42213-3 0  9991",
        "tle_line2": "2 30724  99.3156 183.9059 0093129 226.1302 315.2443 14.37077528986184"
      },
      "geometry": {
        "type": "Point",
        "coordinates": [
          104.46152200390956,
          80.57942133344285
        ]
      }
    },
    {
      "type": "Feature",
      "properties": {
        "norad_id": 30725,
        "name": "FENGYUN 1C DEB",
        "group": "fengyun-1c-debris",
        "lat": -53.61797803290149,
        "lon": 81.67972772762856,
        "alt_km": 801.6555176252314,
        "timestamp": "2025-12-26T06:43:29.790012+00:00",
        "meta_object_name": "FENGYUN 1C DEB",
        "meta_object_id": "1999-025ASK",
        "meta_epoch": "2025-12-25T17:59:10.605120",
        "meta_mean_motion": 14.16130201,
        "meta_eccentricity": 0.00867141,
        "meta_inclination": 99.0064,
        "meta_ra_of_asc_node": 68.7123,
        "meta_arg_of_pericenter": 352.9789,
        "meta_mean_anomaly": 128.7679,
        "meta_ephemeris_type": 0,
        "meta_classification_type": "U",
        "meta_norad_cat_id": 30725,
        "meta_element_set_no": 999,
        "meta_rev_at_epoch": 96532,
        "meta_bstar": 0.0011781361,
        "meta_mean_motion_dot": 2.37e-05,
        "meta_mean_motion_ddot": 0,
        "tle_line1": "1 30725U 99025ASK 25359.74942830  .00002370  00000+0  11781-2 0  9994",
        "tle_line2": "2 30725  99.0064  68.7123 0086714 352.9789 128.7679 14.16130201965327"
      },
      "geometry": {
        "type": "Point",
        "coordinates": [
          81.67972772762856,
          -53.61797803290149
        ]
      }
    },
    {
      "type": "Feature",
      "properties": {
        "norad_id": 30726,
        "name": "FENGYUN 1C DEB",
        "group": "fengyun-1c-debris",
        "lat": 9.127570179870006,
        "lon": 0.9118834313750775,
        "alt_km": 919.9576470949887,
        "timestamp": "2025-12-26T06:43:29.790022+00:00",
        "meta_object_name": "FENGYUN 1C DEB",
        "meta_object_id": "1999-025ASL",
        "meta_epoch": "2025-12-22T12:58:30.564192",
        "meta_mean_motion": 14.09336683,
        "meta_eccentricity": 0.00783825,
        "meta_inclination": 99.2678,
        "meta_ra_of_asc_node": 358.5691,
        "meta_arg_of_pericenter": 198.8017,
        "meta_mean_anomaly": 287.7405,
        "meta_ephemeris_type": 0,
        "meta_classification_type": "U",
        "meta_norad_cat_id": 30726,
        "meta_element_set_no": 999,
        "meta_rev_at_epoch": 96121,
        "meta_bstar": 0.0010169439,
        "meta_mean_motion_dot": 1.776e-05,
        "meta_mean_motion_ddot": 0,
        "tle_line1": "1 30726U 99025ASL 25356.54063153  .00001776  00000+0  10169-2 0  9990",
        "tle_line2": "2 30726  99.2678 358.5691 0078382 198.8017 287.7405 14.09336683961215"
      },
      "geometry": {
        "type": "Point",
        "coordinates": [
          0.9118834313750775,
          9.127570179870006
        ]
      }
    }
  ]
}